{
    "links": {
        "self": "http://www.neowsapp.com/rest/v1/neo/3712624?api_key=iIulBulltgU6a56xZRHN4H3l9WmuAYTsLGpBGhQ2"
    },
    "id": "3712624",
    "neo_reference_id": "3712624",
    "name": "(2015 DF200)",
    "designation": "2015 DF200",
    "nasa_jpl_url": "http://ssd.jpl.nasa.gov/sbdb.cgi?sstr=3712624",
    "absolute_magnitude_h": 26.1,
    "estimated_diameter": {
        "kilometers": {
            "estimated_diameter_min": 0.0160160338,
            "estimated_diameter_max": 0.0358129403
        },
        "meters": {
            "estimated_diameter_min": 16.0160337979,
            "estimated_diameter_max": 35.8129403019
        },
        "miles": {
            "estimated_diameter_min": 0.0099518989,
            "estimated_diameter_max": 0.0222531225
        },
        "feet": {
            "estimated_diameter_min": 52.5460443254,
            "estimated_diameter_max": 117.4965270602
        }
    },
    "is_potentially_hazardous_asteroid": false,
    "close_approach_data": [
        {
            "close_approach_date": "2015-02-23",
            "close_approach_date_full": "2015-Feb-23 02:45",
            "epoch_date_close_approach": 1424659500000,
            "relative_velocity": {
                "kilometers_per_second": "15.8676233254",
                "kilometers_per_hour": "57123.4439713216",
                "miles_per_hour": "35494.2866165137"
            },
            "miss_distance": {
                "astronomical": "0.0078462984",
                "lunar": "3.0522100776",
                "kilometers": "1173789.528024408",
                "miles": "729358.9918885104"
            },
            "orbiting_body": "Moon"
        },
        {
            "close_approach_date": "2015-02-23",
            "close_approach_date_full": "2015-Feb-23 06:22",
            "epoch_date_close_approach": 1424672520000,
            "relative_velocity": {
                "kilometers_per_second": "16.4932609205",
                "kilometers_per_hour": "59375.7393138763",
                "miles_per_hour": "36893.7753531139"
            },
            "miss_distance": {
                "astronomical": "0.0095100004",
                "lunar": "3.6993901556",
                "kilometers": "1422675.803539148",
                "miles": "884009.7522423224"
            },
            "orbiting_body": "Earth"
        }
    ],
    "orbital_data": {
        "orbit_id": "3",
        "orbit_determination_date": "2017-04-06 08:35:19",
        "first_observation_date": "2015-02-26",
        "last_observation_date": "2015-02-27",
        "data_arc_in_days": 1,
        "observations_used": 20,
        "orbit_uncertainty": "9",
        "minimum_orbit_intersection": ".00133635",
        "jupiter_tisserand_invariant": "3.067",
        "epoch_osculation": "2457080.5",
        "eccentricity": ".6916553627934017",
        "semi_major_axis": "2.520972812699553",
        "inclination": "3.995543049669478",
        "ascending_node_longitude": "152.1649613463093",
        "orbital_period": "1462.011100210855",
        "perihelion_distance": ".7773284473395413",
        "perihelion_argument": "299.5525474914376",
        "aphelion_distance": "4.264617178059564",
        "perihelion_time": "2457037.499929058532",
        "mean_anomaly": "10.58817237208111",
        "mean_motion": ".2462361605517768",
        "equinox": "J2000",
        "orbit_class": {
            "orbit_class_type": "APO",
            "orbit_class_description": "Near-Earth asteroid orbits which cross the Earth’s orbit similar to that of 1862 Apollo",
            "orbit_class_range": "a (semi-major axis) > 1.0 AU; q (perihelion) < 1.017 AU"
        }
    },
    "is_sentry_object": false
}